STARLINK-1686           
1 46328U 20062D   26068.94194689  .00125350  00000+0  99254-3 0  9992
2 46328  53.0437 313.2055 0005526 281.1531  78.8864 15.70442116305229
STARLINK-11490 [DTC]    
1 62219U 24231B   26068.58189294  .00193126  00000+0  15564-2 0  9994
2 62219  53.1568 101.8685 0000967  91.5093 268.6036 15.69797797 73398
